PRC TEST SPACECRAFT 4   
1 67689U 26024A   26046.85551544  .00000262  00000+0  49730-4 0  9991
2 67689  49.9852 125.2663 0006187 276.0841  83.9395 14.91673717  1329
CZ-2F R/B               
1 67690U 26024B   26046.81411066  .00025421  00000+0  47131-3 0  9999
2 67690  49.9877 124.2410 0177117 184.2594 175.6867 15.33384962  1336
CZ-2F DEB               
1 67691U 26024C   26046.53168585  .00722576  10293-4  96462-3 0  9990
2 67691  49.9095 123.8560 0253226 190.1482 169.4322 15.66635228  1302
CZ-2F DEB               
1 67692U 26024D   26046.48234456  .00250388  00000+0  50496-2 0  9999
2 67692  50.3154 127.0852 0264941 192.7826 266.1908 15.15710043   623
STARLINK-36748          
1 67693U 26025A   26046.91668981 -.01463572  66225-3 -29328-2 0  9992
2 67693  97.2801 157.2229 0001666  70.6673 140.1468 15.99849886  2346
STARLINK-36753          
1 67694U 26025B   26046.91668981 -.01429712  63911-3 -27534-2 0  9997
2 67694  97.2795 157.2273 0001637  66.7741 155.7109 16.00546574  2501
STARLINK-36750          
1 67695U 26025C   26046.91668981 -.01450688  65335-3 -28651-2 0  9997
2 67695  97.2799 157.2246 0001541  76.5927 138.4840 16.00105827  2349
STARLINK-36401          
1 67696U 26025D   26046.91668981 -.01445249  65032-3 -28211-2 0  9991
2 67696  97.2798 157.2261 0001565  77.9588 140.6270 16.00311621  2343
STARLINK-36704          
1 67697U 26025E   26046.91668981 -.01419421  63228-3 -26971-2 0  9991
2 67697  97.2792 157.2292 0001668  75.2998 151.1045 16.00780800  2348
STARLINK-36697          
1 67698U 26025F   26046.91668981 -.01408248  62426-3 -26506-2 0  9990
2 67698  97.2793 157.2309 0001658  72.4084 156.8984 16.00945590  2290
STARLINK-36716          
1 67699U 26025G   26046.91668981 -.01382623  60497-3 -25676-2 0  9992
2 67699  97.2788 157.2318 0001396  68.0121 164.9746 16.01177952  2507
STARLINK-36712          
1 67700U 26025H   26046.91668981 -.01396430  61767-3 -25628-2 0  9994
2 67700  97.2789 157.2336 0001541  77.4783 159.0791 16.01385115  2294
