CCSDS_OMM_VERS = 2.0
CREATION_DATE  = 
ORIGINATOR     = 

OBJECT_NAME    = PRC TEST SPACECRAFT 4
OBJECT_ID      = 2026-024A
CENTER_NAME    = EARTH
REF_FRAME      = TEME
TIME_SYSTEM    = UTC
MEAN_ELEMENT_THEORY = SGP/SGP4

EPOCH          = 2026-02-15T20:31:56.534016
MEAN_MOTION    = 14.91673717
ECCENTRICITY   = .00061871
INCLINATION    = 49.9852
RA_OF_ASC_NODE = 125.2663
ARG_OF_PERICENTER = 276.0841
MEAN_ANOMALY   = 83.9395

EPHEMERIS_TYPE = 0
CLASSIFICATION_TYPE = U
NORAD_CAT_ID   = 67689
ELEMENT_SET_NO = 999
REV_AT_EPOCH   = 132
BSTAR          = .49729578E-4
MEAN_MOTION_DOT = .262E-5
MEAN_MOTION_DDOT = 0

CCSDS_OMM_VERS = 2.0
CREATION_DATE  = 
ORIGINATOR     = 

OBJECT_NAME    = CZ-2F R/B
OBJECT_ID      = 2026-024B
CENTER_NAME    = EARTH
REF_FRAME      = TEME
TIME_SYSTEM    = UTC
MEAN_ELEMENT_THEORY = SGP/SGP4

EPOCH          = 2026-02-15T19:32:19.161024
MEAN_MOTION    = 15.33384962
ECCENTRICITY   = .01771173
INCLINATION    = 49.9877
RA_OF_ASC_NODE = 124.2410
ARG_OF_PERICENTER = 184.2594
MEAN_ANOMALY   = 175.6867

EPHEMERIS_TYPE = 0
CLASSIFICATION_TYPE = U
NORAD_CAT_ID   = 67690
ELEMENT_SET_NO = 999
REV_AT_EPOCH   = 133
BSTAR          = .47131083E-3
MEAN_MOTION_DOT = .25421E-3
MEAN_MOTION_DDOT = 0

CCSDS_OMM_VERS = 2.0
CREATION_DATE  = 
ORIGINATOR     = 

OBJECT_NAME    = CZ-2F DEB
OBJECT_ID      = 2026-024C
CENTER_NAME    = EARTH
REF_FRAME      = TEME
TIME_SYSTEM    = UTC
MEAN_ELEMENT_THEORY = SGP/SGP4

EPOCH          = 2026-02-15T12:45:37.657440
MEAN_MOTION    = 15.66635228
ECCENTRICITY   = .02532266
INCLINATION    = 49.9095
RA_OF_ASC_NODE = 123.8560
ARG_OF_PERICENTER = 190.1482
MEAN_ANOMALY   = 169.4322

EPHEMERIS_TYPE = 0
CLASSIFICATION_TYPE = U
NORAD_CAT_ID   = 67691
ELEMENT_SET_NO = 999
REV_AT_EPOCH   = 130
BSTAR          = .96461628E-3
MEAN_MOTION_DOT = .722576E-2
MEAN_MOTION_DDOT = .10293148E-4

CCSDS_OMM_VERS = 2.0
CREATION_DATE  = 
ORIGINATOR     = 

OBJECT_NAME    = CZ-2F DEB
OBJECT_ID      = 2026-024D
CENTER_NAME    = EARTH
REF_FRAME      = TEME
TIME_SYSTEM    = UTC
MEAN_ELEMENT_THEORY = SGP/SGP4

EPOCH          = 2026-02-15T11:34:34.569984
MEAN_MOTION    = 15.15710043
ECCENTRICITY   = .0264941
INCLINATION    = 50.3154
RA_OF_ASC_NODE = 127.0852
ARG_OF_PERICENTER = 192.7826
MEAN_ANOMALY   = 266.1908

EPHEMERIS_TYPE = 0
CLASSIFICATION_TYPE = U
NORAD_CAT_ID   = 67692
ELEMENT_SET_NO = 999
REV_AT_EPOCH   = 62
BSTAR          = .50496E-2
MEAN_MOTION_DOT = .250388E-2
MEAN_MOTION_DDOT = 0

CCSDS_OMM_VERS = 2.0
CREATION_DATE  = 
ORIGINATOR     = 

OBJECT_NAME    = STARLINK-36748
OBJECT_ID      = 2026-025A
CENTER_NAME    = EARTH
REF_FRAME      = TEME
TIME_SYSTEM    = UTC
MEAN_ELEMENT_THEORY = SGP/SGP4

EPOCH          = 2026-02-15T22:00:01.999584
MEAN_MOTION    = 15.99849886
ECCENTRICITY   = .00016664
INCLINATION    = 97.2801
RA_OF_ASC_NODE = 157.2229
ARG_OF_PERICENTER = 70.6673
MEAN_ANOMALY   = 140.1468

EPHEMERIS_TYPE = 0
CLASSIFICATION_TYPE = U
NORAD_CAT_ID   = 67693
ELEMENT_SET_NO = 999
REV_AT_EPOCH   = 234
BSTAR          = -.29328249E-2
MEAN_MOTION_DOT = -.1463572E-1
MEAN_MOTION_DDOT = .66225143E-3

CCSDS_OMM_VERS = 2.0
CREATION_DATE  = 
ORIGINATOR     = 

OBJECT_NAME    = STARLINK-36753
OBJECT_ID      = 2026-025B
CENTER_NAME    = EARTH
REF_FRAME      = TEME
TIME_SYSTEM    = UTC
MEAN_ELEMENT_THEORY = SGP/SGP4

EPOCH          = 2026-02-15T22:00:01.999584
MEAN_MOTION    = 16.00546574
ECCENTRICITY   = .00016377
INCLINATION    = 97.2795
RA_OF_ASC_NODE = 157.2273
ARG_OF_PERICENTER = 66.7741
MEAN_ANOMALY   = 155.7109

EPHEMERIS_TYPE = 0
CLASSIFICATION_TYPE = U
NORAD_CAT_ID   = 67694
ELEMENT_SET_NO = 999
REV_AT_EPOCH   = 250
BSTAR          = -.27534129E-2
MEAN_MOTION_DOT = -.1429712E-1
MEAN_MOTION_DDOT = .63911225E-3

CCSDS_OMM_VERS = 2.0
CREATION_DATE  = 
ORIGINATOR     = 

OBJECT_NAME    = STARLINK-36750
OBJECT_ID      = 2026-025C
CENTER_NAME    = EARTH
REF_FRAME      = TEME
TIME_SYSTEM    = UTC
MEAN_ELEMENT_THEORY = SGP/SGP4

EPOCH          = 2026-02-15T22:00:01.999584
MEAN_MOTION    = 16.00105827
ECCENTRICITY   = .00015419
INCLINATION    = 97.2799
RA_OF_ASC_NODE = 157.2246
ARG_OF_PERICENTER = 76.5927
MEAN_ANOMALY   = 138.4840

EPHEMERIS_TYPE = 0
CLASSIFICATION_TYPE = U
NORAD_CAT_ID   = 67695
ELEMENT_SET_NO = 999
REV_AT_EPOCH   = 234
BSTAR          = -.28650662E-2
MEAN_MOTION_DOT = -.1450688E-1
MEAN_MOTION_DDOT = .65335076E-3

CCSDS_OMM_VERS = 2.0
CREATION_DATE  = 
ORIGINATOR     = 

OBJECT_NAME    = STARLINK-36401
OBJECT_ID      = 2026-025D
CENTER_NAME    = EARTH
REF_FRAME      = TEME
TIME_SYSTEM    = UTC
MEAN_ELEMENT_THEORY = SGP/SGP4

EPOCH          = 2026-02-15T22:00:01.999584
MEAN_MOTION    = 16.00311621
ECCENTRICITY   = .00015655
INCLINATION    = 97.2798
RA_OF_ASC_NODE = 157.2261
ARG_OF_PERICENTER = 77.9588
MEAN_ANOMALY   = 140.6270

EPHEMERIS_TYPE = 0
CLASSIFICATION_TYPE = U
NORAD_CAT_ID   = 67696
ELEMENT_SET_NO = 999
REV_AT_EPOCH   = 234
BSTAR          = -.28211168E-2
MEAN_MOTION_DOT = -.1445249E-1
MEAN_MOTION_DDOT = .65031992E-3

CCSDS_OMM_VERS = 2.0
CREATION_DATE  = 
ORIGINATOR     = 

OBJECT_NAME    = STARLINK-36704
OBJECT_ID      = 2026-025E
CENTER_NAME    = EARTH
REF_FRAME      = TEME
TIME_SYSTEM    = UTC
MEAN_ELEMENT_THEORY = SGP/SGP4

EPOCH          = 2026-02-15T22:00:01.999584
MEAN_MOTION    = 16.00780800
ECCENTRICITY   = .00016684
INCLINATION    = 97.2792
RA_OF_ASC_NODE = 157.2292
ARG_OF_PERICENTER = 75.2998
MEAN_ANOMALY   = 151.1045

EPHEMERIS_TYPE = 0
CLASSIFICATION_TYPE = U
NORAD_CAT_ID   = 67697
ELEMENT_SET_NO = 999
REV_AT_EPOCH   = 234
BSTAR          = -.26971242E-2
MEAN_MOTION_DOT = -.1419421E-1
MEAN_MOTION_DDOT = .63228289E-3

CCSDS_OMM_VERS = 2.0
CREATION_DATE  = 
ORIGINATOR     = 

OBJECT_NAME    = STARLINK-36697
OBJECT_ID      = 2026-025F
CENTER_NAME    = EARTH
REF_FRAME      = TEME
TIME_SYSTEM    = UTC
MEAN_ELEMENT_THEORY = SGP/SGP4

EPOCH          = 2026-02-15T22:00:01.999584
MEAN_MOTION    = 16.00945590
ECCENTRICITY   = .00016582
INCLINATION    = 97.2793
RA_OF_ASC_NODE = 157.2309
ARG_OF_PERICENTER = 72.4084
MEAN_ANOMALY   = 156.8984

EPHEMERIS_TYPE = 0
CLASSIFICATION_TYPE = U
NORAD_CAT_ID   = 67698
ELEMENT_SET_NO = 999
REV_AT_EPOCH   = 229
BSTAR          = -.26505931E-2
MEAN_MOTION_DOT = -.1408248E-1
MEAN_MOTION_DDOT = .62425702E-3

CCSDS_OMM_VERS = 2.0
CREATION_DATE  = 
ORIGINATOR     = 

OBJECT_NAME    = STARLINK-36716
OBJECT_ID      = 2026-025G
CENTER_NAME    = EARTH
REF_FRAME      = TEME
TIME_SYSTEM    = UTC
MEAN_ELEMENT_THEORY = SGP/SGP4

EPOCH          = 2026-02-15T22:00:01.999584
MEAN_MOTION    = 16.01177952
ECCENTRICITY   = .00013967
INCLINATION    = 97.2788
RA_OF_ASC_NODE = 157.2318
ARG_OF_PERICENTER = 68.0121
MEAN_ANOMALY   = 164.9746

EPHEMERIS_TYPE = 0
CLASSIFICATION_TYPE = U
NORAD_CAT_ID   = 67699
ELEMENT_SET_NO = 999
REV_AT_EPOCH   = 250
BSTAR          = -.25675552E-2
MEAN_MOTION_DOT = -.1382623E-1
MEAN_MOTION_DDOT = .6049724E-3

CCSDS_OMM_VERS = 2.0
CREATION_DATE  = 
ORIGINATOR     = 

OBJECT_NAME    = STARLINK-36712
OBJECT_ID      = 2026-025H
CENTER_NAME    = EARTH
REF_FRAME      = TEME
TIME_SYSTEM    = UTC
MEAN_ELEMENT_THEORY = SGP/SGP4

EPOCH          = 2026-02-15T22:00:01.999584
MEAN_MOTION    = 16.01385115
ECCENTRICITY   = .00015418
INCLINATION    = 97.2789
RA_OF_ASC_NODE = 157.2336
ARG_OF_PERICENTER = 77.4783
MEAN_ANOMALY   = 159.0791

EPHEMERIS_TYPE = 0
CLASSIFICATION_TYPE = U
NORAD_CAT_ID   = 67700
ELEMENT_SET_NO = 999
REV_AT_EPOCH   = 229
BSTAR          = -.25627537E-2
MEAN_MOTION_DOT = -.139643E-1
MEAN_MOTION_DDOT = .61766835E-3

